IRIDIUM 65 [+]          
1 25288U 98021D   16005.31756243  .00000243  00000-0  79597-4 0  9998
2 25288  86.3970  84.9720 0001967  97.7630 262.3789 14.34223508929217
IRIDIUM 66 [+]          
1 25289U 98021E   16005.26528027  .00000245  00000-0  80457-4 0  9999
2 25289  86.3969  84.9017 0002060  95.7010 322.0212 14.34224261929201
IRIDIUM 67 [+]          
1 25290U 98021F   16005.53953764  .00000250  00000-0  82173-4 0  9994
2 25290  86.3970  84.9156 0002122  97.2730 262.8707 14.34225407929252
IRIDIUM 68 [+]          
1 25291U 98021G   16005.26681526  .00000243  00000-0  79742-4 0  9999
2 25291  86.3972  85.1383 0002110  94.4794 265.6643 14.34224836929183
IRIDIUM 69 [-]          
1 25319U 98026A   16005.50293287  .00000180  00000-0  52535-4 0  9996
2 25319  86.4013 108.1479 0002129 151.0961 273.8842 14.38534205927031
IRIDIUM 71 [-]          
1 25320U 98026B   16005.43846756  .00000160  00000-0  45314-4 0  9990
2 25320  86.3994 104.3213 0000240  33.3964  37.4435 14.38962623927436
IRIDIUM 70 [+]          
1 25342U 98032A   16005.30460421  .00000237  00000-0  77446-4 0  9994
2 25342  86.3976  85.3392 0002022  95.0123 329.2464 14.34225506923290
IRIDIUM 72 [+]          
1 25343U 98032B   16005.57561265  .00000243  00000-0  79659-4 0  9997
2 25343  86.3970  84.8722 0002081  96.9659 351.1472 14.34225610923339
IRIDIUM 73 [-]          
1 25344U 98032C   16005.59634257  .00000222  00000-0  53214-4 0  9998
2 25344  86.4422  66.3293 0002668  80.4620  75.8467 14.48871960931016
IRIDIUM 74 [S]          
1 25345U 98032D   16005.59444895  .00000294  00000-0  81977-4 0  9992
2 25345  86.4482  85.1930 0002206 101.7576 350.3486 14.42950628926520
IRIDIUM 75 [+]          
1 25346U 98032E   16005.51175390  .00000249  00000-0  81706-4 0  9996
2 25346  86.3973  85.1325 0002124  96.9929 348.8217 14.34224165923891
IRIDIUM 3 [+]           
1 25431U 98048A   16005.42294067  .00000230  00000-0  74945-4 0  9998
2 25431  86.3988 116.7709 0001911  96.2482 331.6267 14.34216549909828
IRIDIUM 76 [+]          
1 25432U 98048B   16005.58545895  .00000238  00000-0  78098-4 0  9995
2 25432  86.3986 116.4744 0002084  93.2410 355.0400 14.34217097909832
IRIDIUM 82 [+]          
1 25467U 98051A   16005.60744288  .00000249  00000-0  81891-4 0  9994
2 25467  86.3977 243.0335 0001851  95.1959 264.9448 14.34217866910851
IRIDIUM 81 [+]          
1 25468U 98051B   16005.60108852  .00000194  00000-0  62325-4 0  9996
2 25468  86.3962 242.6842 0002101  89.0544 271.0893 14.34218595907078
IRIDIUM 80 [+]          
1 25469U 98051C   16005.59119084  .00000196  00000-0  62848-4 0  9996
2 25469  86.3966 242.9512 0002152  86.4017 320.8329 14.34216344907079
IRIDIUM 77 [+]          
1 25471U 98051E   16005.59447228  .00000185  00000-0  59055-4 0  9997
2 25471  86.3956 242.5724 0001954  82.8002 308.6908 14.34219698912275
IRIDIUM 2 [-]           
1 25527U 98066A   16005.55833834  .00003352  00000-0  18129-3 0  9998
2 25527  85.5312 343.7849 0007926 218.5908 279.2094 15.14274021937810
IRIDIUM 86 [+]          
1 25528U 98066B   16005.54688260 -.00000014  00000-0 -12120-4 0  9999
2 25528  86.3953 210.7820 0001692  80.5689 279.5698 14.34219559903597
IRIDIUM 84 [+]          
1 25530U 98066D   16005.57859171  .00000036  00000-0  56503-5 0  9992
2 25530  86.3951 210.9247 0002017  89.5823 270.5604 14.34219574901238
IRIDIUM 83 [+]          
1 25531U 98066E   16005.54052494  .00000044  00000-0  86902-5 0  9998
2 25531  86.3955 211.0441 0002019  88.8427 271.3000 14.34221954898582
IRIDIUM 20 [+]          
1 25577U 98074A   16005.46055026  .00000241  00000-0  79174-4 0  9993
2 25577  86.3984 116.4555 0002015  97.6462 262.4963 14.34216947892658
IRIDIUM 11 [+]          
1 25578U 98074B   16005.56087102  .00000239  00000-0  78233-4 0  9997
2 25578  86.3984 116.6203 0001979 101.9027 350.4327 14.34217021901630
IRIDIUM 14 [S]          
1 25777U 99032A   16005.60954258  .00000245  00000-0  80296-4 0  9992
2 25777  86.3971  84.9304 0001975  96.0886  36.1260 14.34224510878918
IRIDIUM 21 [+]          
1 25778U 99032B   16005.27317458  .00000238  00000-0  77767-4 0  9992
2 25778  86.3971  85.0958 0002241  95.0709 265.0742 14.34221309872304
IRIDIUM 91 [+]          
1 27372U 02005A   16005.46305626  .00000172  00000-0  54534-4 0  9997
2 27372  86.3997 148.8081 0002106 102.9316 318.0007 14.34214428735845
IRIDIUM 90 [S]          
1 27373U 02005B   16005.56196940  .00000046  00000-0  77732-5 0  9992
2 27373  86.4466 210.9982 0001968  78.7938 281.3483 14.42943503735127
IRIDIUM 94 [S]          
1 27374U 02005C   16005.36411716  .00000253  00000-0  83295-4 0  9992
2 27374  86.3984 116.8222 0001999  64.9223 354.0060 14.34217156740158
IRIDIUM 95 [+]          
1 27375U 02005D   16005.55909002  .00000176  00000-0  55825-4 0  9996
2 27375  86.3998 148.5520 0002015  92.2935 267.8491 14.34214626735142
IRIDIUM 96 [S]          
1 27376U 02005E   16005.46734679  .00000042  00000-0  77850-5 0  9998
2 27376  86.3999 180.0351 0003472  79.0241 281.1345 14.34219925740339
IRIDIUM 97 [+]          
1 27450U 02031A   16005.50538935  .00000042  00000-0  79078-5 0  9996
2 27450  86.3966 179.8904 0002095  97.4060 262.7374 14.34219817714450
IRIDIUM 98 [S]          
1 27451U 02031B   16005.57172473  .00000201  00000-0  64727-4 0  9996
2 27451  86.3958 243.1527 0002101  89.8357 315.0798 14.34217276715539
